OBJECT_NAME,OBJECT_ID,EPOCH,MEAN_MOTION,ECCENTRICITY,INCLINATION,RA_OF_ASC_NODE,ARG_OF_PERICENTER,MEAN_ANOMALY,EPHEMERIS_TYPE,CLASSIFICATION_TYPE,NORAD_CAT_ID,ELEMENT_SET_NO,REV_AT_EPOCH,BSTAR,MEAN_MOTION_DOT,MEAN_MOTION_DDOT
SAR-LUPE 2,2007-030A,2026-07-16T20:56:04.560000,15.53700269,.0004902,98.1066,306.0880,196.7750,163.3340,0,U,31797,999,6154,.28088E-3,.17871E-3,0
SAPPHIRE,2013-009C,2026-07-16T18:58:31.668384,14.35247799,.0011682,98.4275,16.5456,155.3634,204.8112,0,U,39088,999,70082,.23587E-4,.25E-6,0
PRAETORIAN SDA_602,2025-203A,2026-07-16T12:28:26.241024,13.83887947,.0007094,81.3045,343.6100,114.5864,245.6032,0,U,65565,999,4275,.1412E-4,.28E-6,0
PRAETORIAN SDA_603,2025-203B,2026-07-16T13:09:03.981600,13.83962699,.001079,81.3050,343.5053,111.1723,249.0587,0,U,65566,999,4276,.77963E-4,.99E-6,0
PRAETORIAN SDA_604,2025-203C,2026-07-16T12:20:16.175040,13.83050104,.0006613,81.3068,343.9947,118.4051,241.7772,0,U,65567,999,4273,.13055E-4,.26E-6,0
PRAETORIAN SDA_605,2025-203D,2026-07-16T11:22:00.937344,13.83200138,.0009335,81.3032,343.6722,110.1511,250.0650,0,U,65568,999,4274,.19565E-4,.33E-6,0
PRAETORIAN SDA_606,2025-203E,2026-07-16T12:44:49.740000,13.83200107,.0007201,81.3069,343.8575,112.9895,247.2021,0,U,65569,999,4274,.87966E-5,.22E-6,0
PRAETORIAN SDA_607,2025-203F,2026-07-16T12:30:10.162080,13.83759276,.0010009,81.3052,343.4856,110.4249,249.7983,0,U,65570,999,4276,.99308E-4,.122E-5,0
PRAETORIAN SDA_608,2025-203G,2026-07-16T20:45:30.180960,13.83819577,.0007111,81.3022,343.3302,116.3006,243.8881,0,U,65571,999,4279,.27088E-4,.42E-6,0
PRAETORIAN SDA_609,2025-203H,2026-07-16T12:00:02.173824,13.84211646,.000799,81.3063,343.6456,112.0605,248.1401,0,U,65572,999,4275,.89547E-4,.112E-5,0
PRAETORIAN SDA_610,2025-203J,2026-07-16T20:19:56.472096,13.83528361,.0007831,81.3023,343.3104,115.8235,244.3730,0,U,65573,999,4279,.4278E-4,.59E-6,0
PRAETORIAN SDA_611,2025-203K,2026-07-16T11:52:22.327104,13.83310841,.0006686,81.3031,343.8195,120.9176,239.2638,0,U,65574,999,4273,.30019E-3,.341E-5,0
PRAETORIAN SDA_612,2025-203L,2026-07-16T12:28:46.824096,13.85040844,.0010391,81.3044,343.3106,111.9227,248.3036,0,U,65575,999,4277,.72675E-4,.94E-6,0
PRAETORIAN SDA_613,2025-203M,2026-07-16T19:15:27.014400,13.82767779,.0006805,81.3014,343.5551,111.3668,248.8214,0,U,65576,999,4277,.24804E-4,.39E-6,0
PRAETORIAN SDA_614,2025-203N,2026-07-16T12:21:10.461024,13.84778625,.0008244,81.3029,343.4006,110.1451,250.0594,0,U,65577,999,4277,.11937E-4,.25E-6,0
PRAETORIAN SDA_615,2025-203P,2026-07-16T11:58:16.918752,13.84438020,.0010145,81.3038,343.3979,110.5545,249.6701,0,U,65578,999,4276,.89057E-4,.112E-5,0
PRAETORIAN SDA_616,2025-203Q,2026-07-16T18:49:07.728672,13.83269989,.0006583,81.3080,343.7174,118.5331,241.6488,0,U,65579,999,4277,.10261E-3,.125E-5,0
PRAETORIAN SDA_617,2025-203R,2026-07-16T12:27:12.516768,13.83152201,.0008504,81.3052,343.7907,110.4767,249.7302,0,U,65580,999,4274,.207E-4,.35E-6,0
PRAETORIAN SDA_618,2025-203S,2026-07-16T12:55:38.083008,13.84225696,.0010905,81.3035,343.2933,113.6087,246.6215,0,U,65581,999,4277,.44876E-4,.62E-6,0
PRAETORIAN SDA_619,2025-203T,2026-07-16T12:20:22.443360,13.83804919,.0009292,81.3060,343.6454,111.4394,248.7755,0,U,65582,999,4338,-.25857E-4,-.17E-6,0
PRAETORIAN SDA_620,2025-203U,2026-07-16T11:27:34.392096,13.83208792,.0008699,81.3045,343.7126,107.8451,252.3655,0,U,65583,999,4274,.85604E-4,.106E-5,0
PRAETORIAN SDA_621,2025-203V,2026-07-16T12:23:01.271616,13.83803833,.0008504,81.3035,343.5756,105.8708,254.3386,0,U,65584,999,4275,.12665E-4,.26E-6,0
PRAETORIAN SDA_601,2025-203W,2026-07-16T12:00:03.799008,13.83169206,.0006545,81.3062,343.9197,122.0492,238.1300,0,U,65585,999,4273,-.12251E-3,-.122E-5,0
VICTUS HAZE PUMA,2026-142A,2026-07-16T07:09:16.524288,15.20227445,.0022441,97.4461,94.5882,264.2185,95.6491,0,U,69646,999,409,.84764E-4,.1778E-4,0
